NORAD_CAT_ID,OBJECT_NAME,OBJECT_TYPE,EPOCH,MEAN_MOTION,ECCENTRICITY,INCLINATION,RA_OF_ASC_NODE,ARG_OF_PERICENTER,MEAN_ANOMALY,BSTAR,MEAN_MOTION_DOT,MEAN_MOTION_DDOT,TLE_LINE0,TLE_LINE1,TLE_LINE2,SEMIMAJOR_AXIS,PERIOD,APOGEE,PERIGEE,DECAYED
54773.0,STARLINK-5453,PAYLOAD,2024-01-16 19:36:53,15.08838807,0.0001654,53.217,318.444,112.5051,247.6117,5.8554e-05,6.44e-06,0.0,0 STARLINK-5453,1 54773U 22175R   24016.81728826  .00000644  00000-0  58554-4 0  9993,2 54773  53.2170 318.4440 0001654 112.5051 247.6117 15.08838807 61734,6917.884,95.438,540.893,538.605,0.0
54773.0,STARLINK-5453,PAYLOAD,2024-01-17 03:33:49,15.08849038,0.0001462,53.2169,316.9603,84.4309,275.685,0.00035038,5.294e-05,0.0,0 STARLINK-5453,1 54773U 22175R   24017.14848652  .00005294  00000-0  35038-3 0  9997,2 54773  53.2169 316.9603 0001462  84.4309 275.6850 15.08849038 59624,6917.853,95.437,540.729,538.706,0.0
54773.0,STARLINK-5453,PAYLOAD,2024-01-18 01:49:13,15.08839037,0.0001737,53.2169,312.7971,74.1908,285.9275,0.00014429,2.009e-05,0.0,0 STARLINK-5453,1 54773U 22175R   24018.07585324  .00002009  00000-0  14429-3 0  9996,2 54773  53.2169 312.7971 0001737  74.1908 285.9275 15.08839037 59760,6917.883,95.438,540.95,538.547,0.0
54773.0,STARLINK-5453,PAYLOAD,2024-01-19 01:40:00,15.08850445,0.0001781,53.2176,308.335,74.8983,285.2206,0.00024435,3.604e-05,0.0,0 STARLINK-5453,1 54773U 22175R   24019.06944919  .00003604  00000-0  24435-3 0  9995,2 54773  53.2176 308.3350 0001781  74.8983 285.2206 15.08850445 62070,6917.848,95.437,540.946,538.481,0.0
54773.0,STARLINK-5453,PAYLOAD,2024-01-19 19:09:15,15.08842481,0.0001527,53.2169,305.0637,99.4806,260.6359,0.00011529,1.547e-05,0.0,0 STARLINK-5453,1 54773U 22175R   24019.79809070  .00001547  00000-0  11529-3 0  9997,2 54773  53.2169 305.0637 0001527  99.4806 260.6359 15.08842481 60029,6917.873,95.437,540.794,538.681,0.0
54773.0,STARLINK-5453,PAYLOAD,2024-01-19 22:20:01,15.08839683,0.0001431,53.217,304.4631,109.571,250.5437,9.763e-05,1.266e-05,0.0,0 STARLINK-5453,1 54773U 22175R   24019.93057147  .00001266  00000-0  97630-4 0  9999,2 54773  53.2170 304.4631 0001431 109.5710 250.5437 15.08839683 62206,6917.881,95.438,540.736,538.756,0.0
54773.0,STARLINK-5453,PAYLOAD,2024-01-20 01:30:47,15.08848637,0.0001639,53.2166,303.8751,58.8124,301.3029,0.00025832,3.826e-05,0.0,0 STARLINK-5453,1 54773U 22175R   24020.06305199  .00003826  00000-0  25832-3 0  9996,2 54773  53.2166 303.8751 0001639  58.8124 301.3029 15.08848637 62225,6917.854,95.437,540.853,538.585,0.0
54773.0,STARLINK-5453,PAYLOAD,2024-01-20 22:10:48,15.08841883,0.000122,53.2168,300.0092,97.2423,262.8708,5.2018e-05,5.4e-06,0.0,0 STARLINK-5453,1 54773U 22175R   24020.92417218  .00000540  00000-0  52018-4 0  9994,2 54773  53.2168 300.0092 0001220  97.2423 262.8708 15.08841883 62354,6917.875,95.437,540.584,538.896,0.0
54773.0,STARLINK-5453,PAYLOAD,2024-01-20 23:46:11,15.0885773,0.0001444,53.2169,299.711,93.695,266.4207,0.00038534,5.853e-05,0.0,0 STARLINK-5453,1 54773U 22175R   24020.99040881  .00005853  00000-0  38534-3 0  9997,2 54773  53.2169 299.7110 0001444  93.6950 266.4207 15.08857730 60207,6917.826,95.436,540.69,538.692,0.0
54773.0,STARLINK-5453,PAYLOAD,2024-01-21 18:50:49,15.08840359,0.0001323,53.2168,296.1452,99.3847,260.7295,0.00023561,3.464e-05,0.0,0 STARLINK-5453,1 54773U 22175R   24021.78529724  .00003464  00000-0  23561-3 0  9993,2 54773  53.2168 296.1452 0001323  99.3847 260.7295 15.08840359 60326,6917.879,95.438,540.66,538.829,0.0
54773.0,STARLINK-5453,PAYLOAD,2024-01-21 22:01:35,15.08847757,0.0001256,53.2169,295.5491,105.6549,254.4582,0.00034563,5.218e-05,0.0,0 STARLINK-5453,1 54773U 22175R   24021.91777315  .00005218  00000-0  34563-3 0  9992,2 54773  53.2169 295.5491 0001256 105.6549 254.4582 15.08847757 62508,6917.857,95.437,540.591,538.853,0.0
54773.0,STARLINK-5453,PAYLOAD,2024-01-21 23:36:58,15.08849686,0.0001234,53.2165,295.2532,96.761,263.3523,0.00025201,3.726e-05,0.0,0 STARLINK-5453,1 54773U 22175R   24021.98401186  .00003726  00000-0  25201-3 0  9990,2 54773  53.2165 295.2532 0001234  96.7610 263.3523 15.08849686 60350,6917.851,95.437,540.569,538.862,0.0
54773.0,STARLINK-5453,PAYLOAD,2024-01-22 21:52:22,15.08845172,0.0001379,53.2162,291.0878,108.436,251.6782,-6.4835e-07,-2.98e-06,0.0,0 STARLINK-5453,1 54773U 22175R   24022.91137002 -.00000298  00000-0 -64835-6 0  9999,2 54773  53.2162 291.0878 0001379 108.4360 251.6782 15.08845172 62655,6917.865,95.437,540.684,538.776,0.0
54773.0,STARLINK-5453,PAYLOAD,2024-01-23 01:03:08,15.08842791,0.0001314,53.2166,290.4945,95.898,264.2162,1.0415e-05,-1.22e-06,0.0,0 STARLINK-5453,1 54773U 22175R   24023.04385159 -.00000122  00000-0  10415-4 0  9990,2 54773  53.2166 290.4945 0001314  95.8980 264.2162 15.08842791 60512,6917.872,95.437,540.646,538.828,0.0
54773.0,STARLINK-5453,PAYLOAD,2024-01-23 21:43:09,15.08842903,0.0001283,53.2164,286.6294,87.0392,273.0747,5.115e-05,5.26e-06,0.0,0 STARLINK-5453,1 54773U 22175R   24023.90497306  .00000526  00000-0  51150-4 0  9991,2 54773  53.2164 286.6294 0001283  87.0392 273.0747 15.08842903 62805,6917.872,95.437,540.624,538.849,0.0
54773.0,STARLINK-5453,PAYLOAD,2024-01-24 00:53:56,15.08844056,0.000166,53.2163,286.0356,93.4726,266.6456,0.00019747,2.856e-05,0.0,0 STARLINK-5453,1 54773U 22175R   24024.03745397  .00002856  00000-0  19747-3 0  9995,2 54773  53.2163 286.0356 0001660  93.4726 266.6456 15.08844056 62826,6917.868,95.437,540.881,538.585,0.0
54773.0,STARLINK-5453,PAYLOAD,2024-01-24 21:33:57,15.0883788,0.0001677,53.2169,282.1694,65.8681,294.2487,5.2576e-05,5.49e-06,0.0,0 STARLINK-5453,1 54773U 22175R   24024.89857923  .00000549  00000-0  52576-4 0  9993,2 54773  53.2169 282.1694 0001677  65.8681 294.2487 15.08837880 62957,6917.887,95.438,540.912,538.592,0.0
54773.0,STARLINK-5453,PAYLOAD,2024-01-25 00:44:43,15.08836722,0.0002028,53.2185,281.5748,57.2355,302.8832,0.00017514,2.5e-05,0.0,0 STARLINK-5453,1 54773U 22175R   24025.03106142  .00002500  00000-0  17514-3 0  9991,2 54773  53.2185 281.5748 0002028  57.2355 302.8832 15.08836722 60819,6917.89,95.438,541.158,538.352,0.0
54773.0,STARLINK-5453,PAYLOAD,2024-01-25 23:00:07,15.08837728,0.0001647,53.2175,277.416,78.4295,281.6882,1.2301e-05,-9.2e-07,0.0,0 STARLINK-5453,1 54773U 22175R   24025.95842503 -.00000092  00000-0  12301-4 0  9995,2 54773  53.2175 277.4160 0001647  78.4295 281.6882 15.08837728 63116,6917.887,95.438,540.892,538.613,0.0
54773.0,STARLINK-5453,PAYLOAD,2024-01-26 19:40:05,15.08867121,0.0002414,53.219,273.5497,146.4165,213.6981,0.00022017,3.22e-05,0.0,0 STARLINK-5453,1 54773U 22175R   24026.81951255  .00003220  00000-0  22017-3 0  9995,2 54773  53.2190 273.5497 0002414 146.4165 213.6981 15.08867121 61087,6917.797,95.436,541.332,537.993,0.0
54773.0,STARLINK-5453,PAYLOAD,2024-01-26 22:50:54,15.08831431,0.0001421,53.2173,272.9539,96.665,263.4504,-2.072e-06,-3.21e-06,0.0,0 STARLINK-5453,1 54773U 22175R   24026.95201981 -.00000321  00000-0 -20720-5 0  9996,2 54773  53.2173 272.9539 0001421  96.6650 263.4504 15.08831431 61102,6917.907,95.438,540.755,538.789,0.0
54773.0,STARLINK-5453,PAYLOAD,2024-01-27 21:06:18,15.08835654,0.0001432,53.2174,268.7857,126.7383,233.3741,-4.2706e-05,-9.67e-06,0.0,0 STARLINK-5453,1 54773U 22175R   24027.87938067 -.00000967  00000-0 -42706-4 0  9993,2 54773  53.2174 268.7857 0001432 126.7383 233.3741 15.08835654 63404,6917.894,95.438,540.749,538.768,0.0
54773.0,STARLINK-5453,PAYLOAD,2024-01-28 01:52:27,15.08846225,0.0003892,53.2173,267.8915,162.3986,197.7141,-0.00013346,-2.413e-05,0.0,0 STARLINK-5453,1 54773U 22175R   24028.07809177 -.00002413  00000-0 -13346-3 0  9990,2 54773  53.2173 267.8915 0003892 162.3986 197.7141 15.08846225 61271,6917.861,95.437,542.419,537.034,0.0
54773.0,STARLINK-5453,PAYLOAD,2024-01-28 19:21:42,15.08825358,0.0001421,53.2175,264.6202,110.7393,249.3752,0.00017388,2.479e-05,0.0,0 STARLINK-5453,1 54773U 22175R   24028.80674316  .00002479  00000-0  17388-3 0  9996,2 54773  53.2175 264.6202 0001421 110.7393 249.3752 15.08825358 61380,6917.925,95.438,540.773,538.807,0.0
54773.0,STARLINK-5453,PAYLOAD,2024-01-28 22:32:28,15.0882721,0.000141,53.2176,264.0255,108.4055,251.7091,0.00018873,2.716e-05,0.0,0 STARLINK-5453,1 54773U 22175R   24028.93922352  .00002716  00000-0  18873-3 0  9990,2 54773  53.2176 264.0255 0001410 108.4055 251.7091 15.08827210 63564,6917.919,95.438,540.76,538.809,0.0
54773.0,STARLINK-5453,PAYLOAD,2024-01-29 14:26:20,15.08837314,0.0001385,53.2177,261.0519,106.2591,253.8553,0.0001426,1.982e-05,0.0,0 STARLINK-5453,1 54773U 22175R   24029.60162349  .00001982  00000-0  14260-3 0  9997,2 54773  53.2177 261.0519 0001385 106.2591 253.8553 15.08837314 61501,6917.889,95.438,540.712,538.795,0.0
54773.0,STARLINK-5453,PAYLOAD,2024-01-30 19:03:16,15.08845154,0.000139,53.2173,255.6995,103.17,256.9447,8.9543e-05,1.138e-05,0.0,0 STARLINK-5453,1 54773U 22175R   24030.79393691  .00001138  00000-0  89543-4 0  9995,2 54773  53.2173 255.6995 0001390 103.1700 256.9447 15.08845154 61684,6917.865,95.437,540.691,538.768,0.0
54773.0,STARLINK-5453,PAYLOAD,2024-01-30 22:14:03,15.08841507,0.0001119,53.2164,255.1085,86.5013,273.6107,8.113e-05,1.004e-05,0.0,0 STARLINK-5453,1 54773U 22175R   24030.92642429  .00001004  00000-0  81130-4 0  9992,2 54773  53.2164 255.1085 0001119  86.5013 273.6107 15.08841507 63868,6917.876,95.437,540.515,538.967,0.0
54773.0,STARLINK-5453,PAYLOAD,2024-01-30 23:49:26,15.08841962,0.0001132,53.2164,254.8103,85.343,274.7692,8.4761e-05,1.061e-05,0.0,0 STARLINK-5453,1 54773U 22175R   24030.99266376  .00001061  00000-0  84761-4 0  9998,2 54773  53.2164 254.8103 0001132  85.3430 274.7692 15.08841962 61718,6917.874,95.437,540.522,538.956,0.0
54773.0,STARLINK-5453,PAYLOAD,2024-01-31 14:07:54,15.08836465,0.0001569,53.217,252.1378,64.3338,295.7816,4.2242e-05,3.84e-06,0.0,0 STARLINK-5453,1 54773U 22175R   24031.58883053  .00000384  00000-0  42242-4 0  9996,2 54773  53.2170 252.1378 0001569  64.3338 295.7816 15.08836465 63960,6917.891,95.438,540.842,538.671,0.0
